IDEFIX & ARIANE 42P R/B 
1 27422U 02021B   25350.84857718  .00000261  00000+0  11593-3 0  9995
2 27422  98.5791 285.4862 0012939  72.6581 287.6016 14.30953444232178
AQUA                    
1 27424U 02022A   25351.00450321  .00000925  00000+0  19503-3 0  9992
2 27424  98.4041 311.9529 0001248 113.7180 322.1616 14.61819266256652
CZ-4B R/B               
1 27432U 02024C   25350.75767328  .00000061  00000+0  54689-4 0  9998
2 27432  98.8995  39.5153 0049164 258.2431 211.2578 14.14528724217513
MIDORI II (ADEOS-II)    
1 27597U 02056A   25350.84591676  .00000237  00000+0  11108-3 0  9999
2 27597  98.7641 303.8238 0000398 151.7065 208.4138 14.29208555198464
H-2A R/B                
1 27601U 02056E   25350.86671196  .00000334  00000+0  13154-3 0  9994
2 27601  98.3070 309.4592 0071280  49.0322   4.8304 14.33679730202247
CZ-4B R/B               
1 28059U 03049C   25350.99709729  .00000342  00000+0  90054-4 0  9997
2 28059  98.6789 337.7219 0049179 123.2984 237.2936 14.54913390174579
CZ-2C R/B               
1 28222U 04012C   25350.98474758  .00032936  00000+0  47397-3 0  9995
2 28222  97.7422  43.9577 0016442 253.6386 106.3060 15.55837775191385
SL-16 R/B               
1 28353U 04021B   25350.58147421 -.00000197  00000+0 -77522-4 0  9990
2 28353  71.0012  46.9036 0005083 194.0956 166.0026 14.14579313111082
CZ-4B R/B               
1 28415U 04035C   25351.01623396  .00007032  00000+0  26084-3 0  9992
2 28415  97.3606  21.3037 0031531 261.5061  98.2604 15.27442502167288
CZ-2C R/B               
1 28480U 04046B   25350.88565157  .00000182  00000+0  82640-4 0  9990
2 28480  98.1992 266.0058 0140318  40.1235 321.0208 14.26943080 96694
ARIANE 5 R/B            
1 28499U 04049H   25350.96489275  .00001064  00000+0  12447-3 0  9995
2 28499  98.2523 151.3977 0083306 259.0526 100.1307 14.85022439133518
CZ-2D R/B               
1 28738U 05024B   25350.97370238  .00025678  00000+0  40609-3 0  9992
2 28738  97.3632 358.5327 0004850 350.3689   9.7471 15.53435596126917
