CCSDS_OMM_VERS = 2.0
CREATION_DATE  = 
ORIGINATOR     = 

OBJECT_NAME    = IDEFIX & ARIANE 42P R/B
OBJECT_ID      = 2002-021B
CENTER_NAME    = EARTH
REF_FRAME      = TEME
TIME_SYSTEM    = UTC
MEAN_ELEMENT_THEORY = SGP/SGP4

EPOCH          = 2025-12-16T20:21:57.068352
MEAN_MOTION    = 14.30953444
ECCENTRICITY   = .0012939
INCLINATION    = 98.5791
RA_OF_ASC_NODE = 285.4862
ARG_OF_PERICENTER = 72.6581
MEAN_ANOMALY   = 287.6016

EPHEMERIS_TYPE = 0
CLASSIFICATION_TYPE = U
NORAD_CAT_ID   = 27422
ELEMENT_SET_NO = 999
REV_AT_EPOCH   = 23217
BSTAR          = .11593106E-3
MEAN_MOTION_DOT = .261E-5
MEAN_MOTION_DDOT = 0

CCSDS_OMM_VERS = 2.0
CREATION_DATE  = 
ORIGINATOR     = 

OBJECT_NAME    = AQUA
OBJECT_ID      = 2002-022A
CENTER_NAME    = EARTH
REF_FRAME      = TEME
TIME_SYSTEM    = UTC
MEAN_ELEMENT_THEORY = SGP/SGP4

EPOCH          = 2025-12-17T00:06:29.077344
MEAN_MOTION    = 14.61819266
ECCENTRICITY   = .00012482
INCLINATION    = 98.4041
RA_OF_ASC_NODE = 311.9529
ARG_OF_PERICENTER = 113.7180
MEAN_ANOMALY   = 322.1616

EPHEMERIS_TYPE = 0
CLASSIFICATION_TYPE = U
NORAD_CAT_ID   = 27424
ELEMENT_SET_NO = 999
REV_AT_EPOCH   = 25665
BSTAR          = .19502719E-3
MEAN_MOTION_DOT = .925E-5
MEAN_MOTION_DDOT = 0

CCSDS_OMM_VERS = 2.0
CREATION_DATE  = 
ORIGINATOR     = 

OBJECT_NAME    = CZ-4B R/B
OBJECT_ID      = 2002-024C
CENTER_NAME    = EARTH
REF_FRAME      = TEME
TIME_SYSTEM    = UTC
MEAN_ELEMENT_THEORY = SGP/SGP4

EPOCH          = 2025-12-16T18:11:02.971392
MEAN_MOTION    = 14.14528724
ECCENTRICITY   = .00491645
INCLINATION    = 98.8995
RA_OF_ASC_NODE = 39.5153
ARG_OF_PERICENTER = 258.2431
MEAN_ANOMALY   = 211.2578

EPHEMERIS_TYPE = 0
CLASSIFICATION_TYPE = U
NORAD_CAT_ID   = 27432
ELEMENT_SET_NO = 999
REV_AT_EPOCH   = 21751
BSTAR          = .54688804E-4
MEAN_MOTION_DOT = .61E-6
MEAN_MOTION_DDOT = 0

CCSDS_OMM_VERS = 2.0
CREATION_DATE  = 
ORIGINATOR     = 

OBJECT_NAME    = MIDORI II (ADEOS-II)
OBJECT_ID      = 2002-056A
CENTER_NAME    = EARTH
REF_FRAME      = TEME
TIME_SYSTEM    = UTC
MEAN_ELEMENT_THEORY = SGP/SGP4

EPOCH          = 2025-12-16T20:18:07.208064
MEAN_MOTION    = 14.29208555
ECCENTRICITY   = .00003988
INCLINATION    = 98.7641
RA_OF_ASC_NODE = 303.8238
ARG_OF_PERICENTER = 151.7065
MEAN_ANOMALY   = 208.4138

EPHEMERIS_TYPE = 0
CLASSIFICATION_TYPE = U
NORAD_CAT_ID   = 27597
ELEMENT_SET_NO = 999
REV_AT_EPOCH   = 19846
BSTAR          = .1110813E-3
MEAN_MOTION_DOT = .237E-5
MEAN_MOTION_DDOT = 0

CCSDS_OMM_VERS = 2.0
CREATION_DATE  = 
ORIGINATOR     = 

OBJECT_NAME    = H-2A R/B
OBJECT_ID      = 2002-056E
CENTER_NAME    = EARTH
REF_FRAME      = TEME
TIME_SYSTEM    = UTC
MEAN_ELEMENT_THEORY = SGP/SGP4

EPOCH          = 2025-12-16T20:48:03.913344
MEAN_MOTION    = 14.33679730
ECCENTRICITY   = .00712809
INCLINATION    = 98.3070
RA_OF_ASC_NODE = 309.4592
ARG_OF_PERICENTER = 49.0322
MEAN_ANOMALY   = 4.8304

EPHEMERIS_TYPE = 0
CLASSIFICATION_TYPE = U
NORAD_CAT_ID   = 27601
ELEMENT_SET_NO = 999
REV_AT_EPOCH   = 20224
BSTAR          = .13154491E-3
MEAN_MOTION_DOT = .334E-5
MEAN_MOTION_DDOT = 0

CCSDS_OMM_VERS = 2.0
CREATION_DATE  = 
ORIGINATOR     = 

OBJECT_NAME    = CZ-4B R/B
OBJECT_ID      = 2003-049C
CENTER_NAME    = EARTH
REF_FRAME      = TEME
TIME_SYSTEM    = UTC
MEAN_ELEMENT_THEORY = SGP/SGP4

EPOCH          = 2025-12-16T23:55:49.205856
MEAN_MOTION    = 14.54913390
ECCENTRICITY   = .00491793
INCLINATION    = 98.6789
RA_OF_ASC_NODE = 337.7219
ARG_OF_PERICENTER = 123.2984
MEAN_ANOMALY   = 237.2936

EPHEMERIS_TYPE = 0
CLASSIFICATION_TYPE = U
NORAD_CAT_ID   = 28059
ELEMENT_SET_NO = 999
REV_AT_EPOCH   = 17457
BSTAR          = .90053595E-4
MEAN_MOTION_DOT = .342E-5
MEAN_MOTION_DDOT = 0

CCSDS_OMM_VERS = 2.0
CREATION_DATE  = 
ORIGINATOR     = 

OBJECT_NAME    = CZ-2C R/B
OBJECT_ID      = 2004-012C
CENTER_NAME    = EARTH
REF_FRAME      = TEME
TIME_SYSTEM    = UTC
MEAN_ELEMENT_THEORY = SGP/SGP4

EPOCH          = 2025-12-16T23:38:02.190912
MEAN_MOTION    = 15.55837775
ECCENTRICITY   = .00164422
INCLINATION    = 97.7422
RA_OF_ASC_NODE = 43.9577
ARG_OF_PERICENTER = 253.6386
MEAN_ANOMALY   = 106.3060

EPHEMERIS_TYPE = 0
CLASSIFICATION_TYPE = U
NORAD_CAT_ID   = 28222
ELEMENT_SET_NO = 999
REV_AT_EPOCH   = 19138
BSTAR          = .47396544E-3
MEAN_MOTION_DOT = .32936E-3
MEAN_MOTION_DDOT = 0

CCSDS_OMM_VERS = 2.0
CREATION_DATE  = 
ORIGINATOR     = 

OBJECT_NAME    = SL-16 R/B
OBJECT_ID      = 2004-021B
CENTER_NAME    = EARTH
REF_FRAME      = TEME
TIME_SYSTEM    = UTC
MEAN_ELEMENT_THEORY = SGP/SGP4

EPOCH          = 2025-12-16T13:57:19.371744
MEAN_MOTION    = 14.14579313
ECCENTRICITY   = .00050836
INCLINATION    = 71.0012
RA_OF_ASC_NODE = 46.9036
ARG_OF_PERICENTER = 194.0956
MEAN_ANOMALY   = 166.0026

EPHEMERIS_TYPE = 0
CLASSIFICATION_TYPE = U
NORAD_CAT_ID   = 28353
ELEMENT_SET_NO = 999
REV_AT_EPOCH   = 11108
BSTAR          = -.77521719E-4
MEAN_MOTION_DOT = -.197E-5
MEAN_MOTION_DDOT = 0

CCSDS_OMM_VERS = 2.0
CREATION_DATE  = 
ORIGINATOR     = 

OBJECT_NAME    = CZ-4B R/B
OBJECT_ID      = 2004-035C
CENTER_NAME    = EARTH
REF_FRAME      = TEME
TIME_SYSTEM    = UTC
MEAN_ELEMENT_THEORY = SGP/SGP4

EPOCH          = 2025-12-17T00:23:22.614144
MEAN_MOTION    = 15.27442502
ECCENTRICITY   = .00315316
INCLINATION    = 97.3606
RA_OF_ASC_NODE = 21.3037
ARG_OF_PERICENTER = 261.5061
MEAN_ANOMALY   = 98.2604

EPHEMERIS_TYPE = 0
CLASSIFICATION_TYPE = U
NORAD_CAT_ID   = 28415
ELEMENT_SET_NO = 999
REV_AT_EPOCH   = 16728
BSTAR          = .26084046E-3
MEAN_MOTION_DOT = .7032E-4
MEAN_MOTION_DDOT = 0

CCSDS_OMM_VERS = 2.0
CREATION_DATE  = 
ORIGINATOR     = 

OBJECT_NAME    = CZ-2C R/B
OBJECT_ID      = 2004-046B
CENTER_NAME    = EARTH
REF_FRAME      = TEME
TIME_SYSTEM    = UTC
MEAN_ELEMENT_THEORY = SGP/SGP4

EPOCH          = 2025-12-16T21:15:20.295648
MEAN_MOTION    = 14.26943080
ECCENTRICITY   = .01403189
INCLINATION    = 98.1992
RA_OF_ASC_NODE = 266.0058
ARG_OF_PERICENTER = 40.1235
MEAN_ANOMALY   = 321.0208

EPHEMERIS_TYPE = 0
CLASSIFICATION_TYPE = U
NORAD_CAT_ID   = 28480
ELEMENT_SET_NO = 999
REV_AT_EPOCH   = 9669
BSTAR          = .82639832E-4
MEAN_MOTION_DOT = .182E-5
MEAN_MOTION_DDOT = 0

CCSDS_OMM_VERS = 2.0
CREATION_DATE  = 
ORIGINATOR     = 

OBJECT_NAME    = ARIANE 5 R/B
OBJECT_ID      = 2004-049H
CENTER_NAME    = EARTH
REF_FRAME      = TEME
TIME_SYSTEM    = UTC
MEAN_ELEMENT_THEORY = SGP/SGP4

EPOCH          = 2025-12-16T23:09:26.733600
MEAN_MOTION    = 14.85022439
ECCENTRICITY   = .0083306
INCLINATION    = 98.2523
RA_OF_ASC_NODE = 151.3977
ARG_OF_PERICENTER = 259.0526
MEAN_ANOMALY   = 100.1307

EPHEMERIS_TYPE = 0
CLASSIFICATION_TYPE = U
NORAD_CAT_ID   = 28499
ELEMENT_SET_NO = 999
REV_AT_EPOCH   = 13351
BSTAR          = .12447065E-3
MEAN_MOTION_DOT = .1064E-4
MEAN_MOTION_DDOT = 0

CCSDS_OMM_VERS = 2.0
CREATION_DATE  = 
ORIGINATOR     = 

OBJECT_NAME    = CZ-2D R/B
OBJECT_ID      = 2005-024B
CENTER_NAME    = EARTH
REF_FRAME      = TEME
TIME_SYSTEM    = UTC
MEAN_ELEMENT_THEORY = SGP/SGP4

EPOCH          = 2025-12-16T23:22:07.885632
MEAN_MOTION    = 15.53435596
ECCENTRICITY   = .00048502
INCLINATION    = 97.3632
RA_OF_ASC_NODE = 358.5327
ARG_OF_PERICENTER = 350.3689
MEAN_ANOMALY   = 9.7471

EPHEMERIS_TYPE = 0
CLASSIFICATION_TYPE = U
NORAD_CAT_ID   = 28738
ELEMENT_SET_NO = 999
REV_AT_EPOCH   = 12691
BSTAR          = .40609191E-3
MEAN_MOTION_DOT = .25678E-3
MEAN_MOTION_DDOT = 0

